NORAD_CAT_ID,OBJECT_NAME,OBJECT_TYPE,EPOCH,MEAN_MOTION,ECCENTRICITY,INCLINATION,RA_OF_ASC_NODE,ARG_OF_PERICENTER,MEAN_ANOMALY,BSTAR,MEAN_MOTION_DOT,MEAN_MOTION_DDOT,TLE_LINE0,TLE_LINE1,TLE_LINE2,SEMIMAJOR_AXIS,PERIOD,APOGEE,PERIGEE,DECAYED
55747.0,STARLINK-5539,PAYLOAD,2023-03-08 20:00:01,15.94653114,0.0033661,69.9999,141.6096,164.7884,248.8791,-0.0024957,-0.01007275,0.00031469,0 STARLINK-5539,1 55747U 23028G   23067.83334491 -.01007275  31469-3 -24957-2 0  9995,2 55747  69.9999 141.6096 0033661 164.7884 248.8791 15.94653114  1453,6667.418,90.302,311.726,266.84,0.0
55747.0,STARLINK-5539,PAYLOAD,2023-03-08 21:16:56,15.94824989,0.0035452,69.9959,141.4531,161.5498,198.7005,-0.00044066,-0.00182387,1.5441e-05,0 STARLINK-5539,1 55747U 23028G   23067.88677000 -.00182387  15441-4 -44066-3 0  9990,2 55747  69.9959 141.4531 0035452 161.5498 198.7005 15.94824989  1469,6666.939,90.292,312.44,265.168,0.0
55747.0,STARLINK-5539,PAYLOAD,2023-03-09 20:00:01,15.92702401,0.0023252,69.9996,138.6979,169.5157,219.5679,-0.0028914,-0.01020722,0.00031611,0 STARLINK-5539,1 55747U 23028G   23068.83334491 -.01020722  31611-3 -28914-2 0  9994,2 55747  69.9996 138.6979 0023252 169.5157 219.5679 15.92702401  1617,6672.861,90.412,310.242,279.21,0.0
55747.0,STARLINK-5539,PAYLOAD,2023-03-09 22:00:00,15.92517728,0.0022754,69.9999,138.4556,169.8097,336.9158,-0.0027999,-0.00978118,0.00029161,0 STARLINK-5539,1 55747U 23028G   23068.91667824 -.00978118  29161-3 -27999-2 0  9991,2 55747  69.9999 138.4556 0022754 169.8097 336.9158 15.92517728  1309,6673.377,90.423,310.427,280.057,0.0
55747.0,STARLINK-5539,PAYLOAD,2023-03-10 06:00:00,15.91895283,0.001783,69.9997,137.4869,174.3723,82.387,-0.0030884,-0.01034104,0.00032119,0 STARLINK-5539,1 55747U 23028G   23069.25001157 -.01034104  32119-3 -30884-2 0  9993,2 55747  69.9997 137.4869 0017830 174.3723  82.3870 15.91895283  1676,6675.116,90.458,308.883,285.08,0.0
55747.0,STARLINK-5539,PAYLOAD,2023-03-10 14:00:01,15.91234587,0.0015262,70.0002,136.5197,179.6848,186.3424,-0.0031717,-0.01022399,0.00031244,0 STARLINK-5539,1 55747U 23028G   23069.58334491 -.01022399  31244-3 -31717-2 0  9996,2 55747  70.0002 136.5197 0015262 179.6848 186.3424 15.91234587  1734,6676.964,90.496,309.019,288.639,0.0
55747.0,STARLINK-5539,PAYLOAD,2023-03-10 22:00:00,15.90573135,0.0011852,69.9999,135.5526,189.5354,284.976,-0.0032246,-0.0100077,0.00029837,0 STARLINK-5539,1 55747U 23028G   23069.91667824 -.01000770  29837-3 -32246-2 0  9994,2 55747  69.9999 135.5526 0011852 189.5354 284.9760 15.90573135  1781,6678.815,90.533,308.596,292.764,0.0
55747.0,STARLINK-5539,PAYLOAD,2023-03-11 06:00:00,15.89934543,0.00099,70.0001,134.5863,203.293,18.9113,-0.003417,-0.01024545,0.00030966,0 STARLINK-5539,1 55747U 23028G   23070.25001157 -.01024545  30966-3 -34170-2 0  9993,2 55747  70.0001 134.5863 0009900 203.2930  18.9113 15.89934543  1831,6680.603,90.57,309.082,295.854,0.0
55747.0,STARLINK-5539,PAYLOAD,2023-03-11 14:00:01,15.89285538,0.0008851,69.9999,133.6218,220.6568,108.5306,-0.0035757,-0.01036695,0.0003145,0 STARLINK-5539,1 55747U 23028G   23070.58335648 -.01036695  31450-3 -35757-2 0  9994,2 55747  69.9999 133.6218 0008851 220.6568 108.5306 15.89285538  1880,6682.422,90.607,310.201,298.372,0.0
55747.0,STARLINK-5539,PAYLOAD,2023-03-11 22:00:00,15.88624952,0.0008395,69.9997,132.6583,244.9744,190.2839,-0.0036307,-0.01018282,0.00030231,0 STARLINK-5539,1 55747U 23028G   23070.91667824 -.01018282  30231-3 -36307-2 0  9995,2 55747  69.9997 132.6583 0008395 244.9744 190.2839 15.88624952  1942,6684.274,90.644,311.751,300.528,0.0
55747.0,STARLINK-5539,PAYLOAD,2023-03-12 06:00:00,15.87967229,0.0009159,69.9998,131.6953,260.1633,280.4488,-0.0037043,-0.01006274,0.00029388,0 STARLINK-5539,1 55747U 23028G   23071.25001157 -.01006274  29388-3 -37043-2 0  9991,2 55747  69.9998 131.6953 0009159 260.1633 280.4488 15.87967229  1992,6686.12,90.682,314.109,301.861,0.0
55747.0,STARLINK-5539,PAYLOAD,2023-03-12 14:00:01,15.87302736,0.0009033,69.9998,130.7334,268.8702,16.317,-0.0037469,-0.00896382,0.0,0 STARLINK-5539,1 55747U 23028G   23071.58334491 -.00896382  00000-0 -37469-2 0  9992,2 55747  69.9998 130.7334 0009033 268.8702  16.3170 15.87302736  1303,6687.986,90.72,315.892,303.809,0.0
55747.0,STARLINK-5539,PAYLOAD,2023-03-12 22:00:00,15.86667788,0.000533,69.9997,129.7726,272.8782,116.0898,-0.0040066,-0.0092283,0.0,0 STARLINK-5539,1 55747U 23028G   23071.91667824 -.00922830  00000-0 -40066-2 0  9993,2 55747  69.9997 129.7726 0005330 272.8782 116.0898 15.86667788  1309,6689.77,90.756,315.2,308.069,0.0
55747.0,STARLINK-5539,PAYLOAD,2023-03-13 06:00:00,15.85981136,0.0003557,70.0,128.8118,277.8343,214.1542,-0.0039012,-0.00872654,0.0,0 STARLINK-5539,1 55747U 23028G   23072.25001157 -.00872654  00000-0 -39012-2 0  9999,2 55747  70.0000 128.8118 0003557 277.8343 214.1542 15.85981136  2154,6691.701,90.796,315.946,311.185,0.0
55747.0,STARLINK-5539,PAYLOAD,2023-03-13 14:00:01,15.85350613,0.0003603,70.0003,127.853,265.0378,329.1634,-0.0041724,-0.00902119,0.0,0 STARLINK-5539,1 55747U 23028G   23072.58334491 -.00902119  00000-0 -41724-2 0  9998,2 55747  70.0003 127.8530 0003603 265.0378 329.1634 15.85350613  1308,6693.475,90.832,317.751,312.928,0.0
55747.0,STARLINK-5539,PAYLOAD,2023-03-13 22:00:00,15.84701786,0.0003706,70.0001,126.8946,270.8564,64.7848,-0.0043381,-0.00908401,0.0,0 STARLINK-5539,1 55747U 23028G   23072.91667824 -.00908401  00000-0 -43381-2 0  9995,2 55747  70.0001 126.8946 0003706 270.8564  64.7848 15.84701786  2255,6695.302,90.869,319.648,314.685,0.0
55747.0,STARLINK-5539,PAYLOAD,2023-03-14 14:00:01,15.83395912,0.0003469,70.0004,124.9809,268.6952,267.4807,-0.0045984,-0.00904837,0.0,0 STARLINK-5539,1 55747U 23028G   23073.58334491 -.00904837  00000-0 -45984-2 0  9990,2 55747  70.0004 124.9809 0003469 268.6952 267.4807 15.83395912  1308,6698.982,90.944,323.171,318.523,0.0
55747.0,STARLINK-5539,PAYLOAD,2023-03-14 22:00:00,15.82749072,0.0003602,70.0003,124.0248,276.042,359.2266,-0.0047969,-0.00914478,0.0,0 STARLINK-5539,1 55747U 23028G   23073.91667824 -.00914478  00000-0 -47969-2 0  9993,2 55747  70.0003 124.0248 0003602 276.0420 359.2266 15.82749072  2418,6700.807,90.981,325.086,320.259,0.0
55747.0,STARLINK-5539,PAYLOAD,2023-03-15 14:00:01,15.81439436,0.0003583,69.9998,122.1168,273.6157,197.4954,-0.0050439,-0.00905264,0.0,0 STARLINK-5539,1 55747U 23028G   23074.58334491 -.00905264  00000-0 -50439-2 0  9997,2 55747  69.9998 122.1168 0003583 273.6157 197.4954 15.81439436  1308,6704.506,91.056,328.773,323.969,0.0
55747.0,STARLINK-5539,PAYLOAD,2023-03-15 22:00:00,15.8077915,0.0003572,70.0,121.1636,279.2112,288.6506,-0.0051321,-0.00894422,0.0,0 STARLINK-5539,1 55747U 23028G   23074.91667824 -.00894422  00000-0 -51321-2 0  9997,2 55747  70.0000 121.1636 0003572 279.2112 288.6506 15.80779150  2570,6706.373,91.094,330.634,325.843,0.0
55747.0,STARLINK-5539,PAYLOAD,2023-03-16 14:00:01,15.7948129,0.000364,70.0,119.261,274.4278,124.5782,-0.0055027,-0.00902643,0.0,0 STARLINK-5539,1 55747U 23028G   23075.58334491 -.00902643  00000-0 -55027-2 0  9994,2 55747  70.0000 119.2610 0003640 274.4278 124.5782 15.79481290  2685,6710.046,91.169,334.354,329.469,0.0
55747.0,STARLINK-5539,PAYLOAD,2023-03-16 22:00:00,15.78828181,0.00035,70.0002,118.3107,271.7008,221.7061,-0.0056628,-0.00901719,0.0,0 STARLINK-5539,1 55747U 23028G   23075.91667824 -.00901719  00000-0 -56628-2 0  9991,2 55747  70.0002 118.3107 0003500 271.7008 221.7061 15.78828181  1305,6711.897,91.207,336.111,331.413,0.0
55747.0,STARLINK-5539,PAYLOAD,2023-03-17 14:00:01,15.77547264,0.0003546,69.9997,116.4137,272.088,47.7614,-0.0062345,-0.00933515,0.0,0 STARLINK-5539,1 55747U 23028G   23076.58334491 -.00933515  00000-0 -62345-2 0  9998,2 55747  69.9997 116.4137 0003546 272.0880  47.7614 15.77547264  2837,6715.529,91.281,339.776,335.013,0.0
55747.0,STARLINK-5539,PAYLOAD,2023-03-17 22:00:00,15.76869806,0.0003615,70.0001,115.4662,271.6129,140.3015,-0.0061625,-0.00898962,0.0,0 STARLINK-5539,1 55747U 23028G   23076.91667824 -.00898962  00000-0 -61625-2 0  9990,2 55747  70.0001 115.4662 0003615 271.6129 140.3015 15.76869806  1300,6717.453,91.32,341.746,336.889,0.0
55747.0,STARLINK-5539,PAYLOAD,2023-03-18 22:00:00,15.7491052,0.0003727,70.0002,112.6295,281.4426,41.9393,-0.0066881,-0.00895306,0.0,0 STARLINK-5539,1 55747U 23028G   23077.91667824 -.00895306  00000-0 -66881-2 0  9999,2 55747  70.0002 112.6295 0003727 281.4426  41.9393 15.74910520  3041,6723.023,91.434,347.393,342.382,0.0
55747.0,STARLINK-5539,PAYLOAD,2023-03-19 14:00:01,15.73609139,0.0003485,70.0,110.7434,276.4665,223.9802,-0.0071132,-0.00899319,0.0,0 STARLINK-5539,1 55747U 23028G   23078.58334491 -.00899319  00000-0 -71132-2 0  9997,2 55747  70.0000 110.7434 0003485 276.4665 223.9802 15.73609139  3152,6726.729,91.509,350.938,346.25,0.0
55747.0,STARLINK-5539,PAYLOAD,2023-03-19 22:00:00,15.7295706,0.0003477,70.0001,109.8014,271.0396,316.767,-0.0073194,-0.00899725,0.0,0 STARLINK-5539,1 55747U 23028G   23078.91667824 -.00899725  00000-0 -73194-2 0  9994,2 55747  70.0001 109.8014 0003477 271.0396 316.7670 15.72957060  1306,6728.588,91.547,352.792,348.113,0.0
55747.0,STARLINK-5539,PAYLOAD,2023-03-20 06:00:00,15.72316873,0.0003661,69.9932,108.8523,270.8248,43.558,-0.0078292,-0.00932719,0.0,0 STARLINK-5539,1 55747U 23028G   23079.25001157 -.00932719  00000-0 -78292-2 0  9998,2 55747  69.9932 108.8523 0003661 270.8248  43.5580 15.72316873  3250,6730.414,91.585,354.743,349.815,0.0
55747.0,STARLINK-5539,PAYLOAD,2023-03-20 14:00:01,15.7167286,0.0003674,69.9927,107.9122,277.5186,122.6484,-0.007969,-0.00924628,0.0,0 STARLINK-5539,1 55747U 23028G   23079.58334491 -.00924628  00000-0 -79690-2 0  9997,2 55747  69.9927 107.9122 0003674 277.5186 122.6484 15.71672860  1304,6732.253,91.622,356.591,351.644,0.0
